[
{"Borough":"Manhattan","Neighborhood":"Edwin","Zip":11204,"naics":"713940","est":2.0,"Median Income":47341,"White Pop":46888.0,"Afr Am Pop":891.0,"Asian Pop":25264.0,"Native Am Pacific Pop":0.0,"Other Pop":0.0,"Multi Race Pop":1305.0,"Lat":40.618756,"Lng":-73.984896,"Location":"40.618756,-73.984896"},{"Borough":"Brooklyn","Neighborhood":"Borough Park","Zip":11218,"naics":"713940","est":1.0,"Median Income":64152,"White Pop":43954.0,"Afr Am Pop":6272.0,"Asian Pop":15129.0,"Native Am Pacific Pop":0.0,"Other Pop":0.0,"Multi Race Pop":3061.0,"Lat":40.643505,"Lng":-73.976297,"Location":"40.643505,-73.976297"},{"Borough":"Brooklyn","Neighborhood":"Borough Park","Zip":11219,"naics":"713940","est":3.0,"Median Income":37665,"White Pop":62415.0,"Afr Am Pop":1065.0,"Asian Pop":23062.0,"Native Am Pacific Pop":0.0,"Other Pop":0.0,"Multi Race Pop":1115.0,"Lat":40.632676,"Lng":-73.996924,"Location":"40.632676,-73.996924"},{"Borough":"Brooklyn","Neighborhood":"Borough Park","Zip":11230,"naics":"713940","est":3.0,"Median Income":46013,"White Pop":62650.0,"Afr Am Pop":6595.0,"Asian Pop":12784.0,"Native Am Pacific Pop":0.0,"Other Pop":0.0,"Multi Race Pop":1773.0,"Lat":40.622192,"Lng":-73.964843,"Location":"40.622192,-73.964843"},{"Borough":"Bronx","Neighborhood":"Bronx Park and Fordham","Zip":10458,"naics":"713940","est":2.0,"Median Income":32129,"White Pop":16315.0,"Afr Am Pop":17243.0,"Asian Pop":2330.0,"Native Am Pacific Pop":31.0,"Other Pop":31.0,"Multi Race Pop":3822.0,"Lat":40.862549,"Lng":-73.888064,"Location":"40.862549,-73.888064"},{"Borough":"Bronx","Neighborhood":"Bronx Park and Fordham","Zip":10467,"naics":"713940","est":5.0,"Median Income":35381,"White Pop":21948.0,"Afr Am Pop":36295.0,"Asian Pop":6120.0,"Native Am Pacific Pop":53.0,"Other Pop":53.0,"Multi Race Pop":3974.0,"Lat":40.86994,"Lng":-73.865716,"Location":"40.86994,-73.865716"},{"Borough":"Bronx","Neighborhood":"Bronx Park and Fordham","Zip":10468,"naics":"713940","est":1.0,"Median Income":35398,"White Pop":10362.0,"Afr Am Pop":16180.0,"Asian Pop":2735.0,"Native Am Pacific Pop":9.0,"Other Pop":9.0,"Multi Race Pop":3117.0,"Lat":40.868966,"Lng":-73.900099,"Location":"40.868966,-73.900099"},{"Borough":"Brooklyn","Neighborhood":"Bushwick and Williamsburg","Zip":11206,"naics":"713940","est":8.0,"Median Income":34122,"White Pop":40751.0,"Afr Am Pop":23547.0,"Asian Pop":6028.0,"Native Am Pacific Pop":47.0,"Other Pop":47.0,"Multi Race Pop":3213.0,"Lat":61.328428,"Lng":-66.494043,"Location":"61.328428,-66.494043"},{"Borough":"Brooklyn","Neighborhood":"Bushwick and Williamsburg","Zip":11221,"naics":"713940","est":2.0,"Median Income":47170,"White Pop":23617.0,"Afr Am Pop":43466.0,"Asian Pop":3135.0,"Native Am Pacific Pop":16.0,"Other Pop":16.0,"Multi Race Pop":2599.0,"Lat":68.193321,"Lng":-60.17661,"Location":"68.193321,-60.17661"},{"Borough":"Brooklyn","Neighborhood":"Bushwick and Williamsburg","Zip":11237,"naics":"713940","est":1.0,"Median Income":51269,"White Pop":23952.0,"Afr Am Pop":8906.0,"Asian Pop":4205.0,"Native Am Pacific Pop":24.0,"Other Pop":24.0,"Multi Race Pop":1600.0,"Lat":62.476577,"Lng":-71.056504,"Location":"62.476577,-71.056504"},{"Borough":"Brooklyn","Neighborhood":"Canarsie and Flatlands","Zip":11234,"naics":"713940","est":7.0,"Median Income":79490,"White Pop":41216.0,"Afr Am Pop":45387.0,"Asian Pop":5926.0,"Native Am Pacific Pop":9.0,"Other Pop":9.0,"Multi Race Pop":1428.0,"Lat":40.606434,"Lng":-73.909839,"Location":"40.606434,-73.909839"},{"Borough":"Brooklyn","Neighborhood":"Canarsie and Flatlands","Zip":11236,"naics":"713940","est":3.0,"Median Income":63700,"White Pop":5973.0,"Afr Am Pop":87124.0,"Asian Pop":2767.0,"Native Am Pacific Pop":0.0,"Other Pop":0.0,"Multi Race Pop":1132.0,"Lat":40.639438,"Lng":-73.900666,"Location":"40.639438,-73.900666"},{"Borough":"Bronx","Neighborhood":"Central Bronx","Zip":10453,"naics":"713940","est":1.0,"Median Income":24421,"White Pop":7514.0,"Afr Am Pop":26277.0,"Asian Pop":1472.0,"Native Am Pacific Pop":41.0,"Other Pop":41.0,"Multi Race Pop":1929.0,"Lat":40.852806,"Lng":-73.912127,"Location":"40.852806,-73.912127"},{"Borough":"Brooklyn","Neighborhood":"Central Brooklyn","Zip":11212,"naics":"713940","est":1.0,"Median Income":25677,"White Pop":5428.0,"Afr Am Pop":68660.0,"Asian Pop":988.0,"Native Am Pacific Pop":8.0,"Other Pop":8.0,"Multi Race Pop":1733.0,"Lat":40.66293,"Lng":-73.913275,"Location":"40.66293,-73.913275"},{"Borough":"Brooklyn","Neighborhood":"Central Brooklyn","Zip":11213,"naics":"713940","est":2.0,"Median Income":40604,"White Pop":14378.0,"Afr Am Pop":44560.0,"Asian Pop":1627.0,"Native Am Pacific Pop":0.0,"Other Pop":0.0,"Multi Race Pop":1944.0,"Lat":40.671065,"Lng":-73.93619,"Location":"40.671065,-73.93619"},{"Borough":"Brooklyn","Neighborhood":"Central Brooklyn","Zip":11216,"naics":"713940","est":3.0,"Median Income":56025,"White Pop":15019.0,"Afr Am Pop":34693.0,"Asian Pop":2781.0,"Native Am Pacific Pop":16.0,"Other Pop":16.0,"Multi Race Pop":2199.0,"Lat":40.680747,"Lng":-73.949372,"Location":"40.680747,-73.949372"},{"Borough":"Brooklyn","Neighborhood":"Central Brooklyn","Zip":11238,"naics":"713940","est":8.0,"Median Income":79013,"White Pop":23996.0,"Afr Am Pop":22640.0,"Asian Pop":3300.0,"Native Am Pacific Pop":19.0,"Other Pop":19.0,"Multi Race Pop":2823.0,"Lat":40.679145,"Lng":-73.963695,"Location":"40.679145,-73.963695"},{"Borough":"Manhattan","Neighborhood":"Central Harlem","Zip":10026,"naics":"713940","est":3.0,"Median Income":54349,"White Pop":11031.0,"Afr Am Pop":21223.0,"Asian Pop":2254.0,"Native Am Pacific Pop":31.0,"Other Pop":31.0,"Multi Race Pop":1385.0,"Lat":72.315064,"Lng":-39.57534,"Location":"72.315064,-39.57534"},{"Borough":"Manhattan","Neighborhood":"Central Harlem","Zip":10027,"naics":"713940","est":4.0,"Median Income":45536,"White Pop":20531.0,"Afr Am Pop":26358.0,"Asian Pop":6187.0,"Native Am Pacific Pop":5.0,"Other Pop":5.0,"Multi Race Pop":2490.0,"Lat":97.534206,"Lng":-52.180412,"Location":"97.534206,-52.180412"},{"Borough":"Manhattan","Neighborhood":"Central Harlem","Zip":10030,"naics":"713940","est":1.0,"Median Income":36118,"White Pop":4713.0,"Afr Am Pop":20007.0,"Asian Pop":535.0,"Native Am Pacific Pop":65.0,"Other Pop":65.0,"Multi Race Pop":1785.0,"Lat":81.498262,"Lng":-47.014052,"Location":"81.498262,-47.014052"},{"Borough":"Manhattan","Neighborhood":"Central Harlem","Zip":10037,"naics":"713940","est":2.0,"Median Income":39979,"White Pop":2137.0,"Afr Am Pop":15537.0,"Asian Pop":520.0,"Native Am Pacific Pop":23.0,"Other Pop":23.0,"Multi Race Pop":1165.0,"Lat":56.282846,"Lng":-34.403249,"Location":"56.282846,-34.403249"},{"Borough":"Manhattan","Neighborhood":"Central Harlem","Zip":10039,"naics":"713940","est":1.0,"Median Income":34197,"White Pop":3592.0,"Afr Am Pop":17202.0,"Asian Pop":504.0,"Native Am Pacific Pop":10.0,"Other Pop":10.0,"Multi Race Pop":1209.0,"Lat":72.916501,"Lng":-65.341823,"Location":"72.916501,-65.341823"},{"Borough":"Queens","Neighborhood":"Central Queens","Zip":11365,"naics":"713940","est":4.0,"Median Income":63455,"White Pop":16089.0,"Afr Am Pop":3454.0,"Asian Pop":20339.0,"Native Am Pacific Pop":16.0,"Other Pop":16.0,"Multi Race Pop":1596.0,"Lat":83.711481,"Lng":-41.136081,"Location":"83.711481,-41.136081"},{"Borough":"Queens","Neighborhood":"Central Queens","Zip":11366,"naics":"713940","est":2.0,"Median Income":67115,"White Pop":5902.0,"Afr Am Pop":806.0,"Asian Pop":6734.0,"Native Am Pacific Pop":0.0,"Other Pop":0.0,"Multi Race Pop":444.0,"Lat":43.019962,"Lng":-67.482393,"Location":"43.019962,-67.482393"},{"Borough":"Queens","Neighborhood":"Central Queens","Zip":11367,"naics":"713940","est":1.0,"Median Income":58924,"White Pop":24400.0,"Afr Am Pop":3502.0,"Asian Pop":11519.0,"Native Am Pacific Pop":0.0,"Other Pop":0.0,"Multi Race Pop":1863.0,"Lat":66.513237,"Lng":-36.011542,"Location":"66.513237,-36.011542"},{"Borough":"Manhattan","Neighborhood":"Chelsea and Clinton","Zip":10001,"naics":"713940","est":20.0,"Median Income":85221,"White Pop":14923.0,"Afr Am Pop":2626.0,"Asian Pop":5242.0,"Native Am Pacific Pop":5.0,"Other Pop":5.0,"Multi Race Pop":527.0,"Lat":88.879105,"Lng":-40.192414,"Location":"88.879105,-40.192414"},{"Borough":"Manhattan","Neighborhood":"Chelsea and Clinton","Zip":10011,"naics":"713940","est":33.0,"Median Income":123208,"White Pop":39858.0,"Afr Am Pop":2748.0,"Asian Pop":5289.0,"Native Am Pacific Pop":4.0,"Other Pop":4.0,"Multi Race Pop":1459.0,"Lat":43.033886,"Lng":-58.530506,"Location":"43.033886,-58.530506"},{"Borough":"Manhattan","Neighborhood":"Chelsea and Clinton","Zip":10018,"naics":"713940","est":13.0,"Median Income":107861,"White Pop":5711.0,"Afr Am Pop":576.0,"Asian Pop":2847.0,"Native Am Pacific Pop":0.0,"Other Pop":0.0,"Multi Race Pop":411.0,"Lat":40.755346,"Lng":-23.572629,"Location":"40.755346,-23.572629"},{"Borough":"Manhattan","Neighborhood":"Chelsea and Clinton","Zip":10019,"naics":"713940","est":29.0,"Median Income":99063,"White Pop":28668.0,"Afr Am Pop":2551.0,"Asian Pop":6850.0,"Native Am Pacific Pop":53.0,"Other Pop":53.0,"Multi Race Pop":1486.0,"Lat":65.975977,"Lng":-31.015349,"Location":"65.975977,-31.015349"},{"Borough":"Manhattan","Neighborhood":"Chelsea and Clinton","Zip":10020,"naics":"713940","est":2.0,"Median Income":-666666666,"White Pop":0.0,"Afr Am Pop":0.0,"Asian Pop":0.0,"Native Am Pacific Pop":0.0,"Other Pop":0.0,"Multi Race Pop":0.0,"Lat":64.822439,"Lng":-58.508731,"Location":"64.822439,-58.508731"},{"Borough":"Manhattan","Neighborhood":"Chelsea and Clinton","Zip":10036,"naics":"713940","est":22.0,"Median Income":93707,"White Pop":17332.0,"Afr Am Pop":2049.0,"Asian Pop":5083.0,"Native Am Pacific Pop":0.0,"Other Pop":0.0,"Multi Race Pop":587.0,"Lat":71.698964,"Lng":-55.082446,"Location":"71.698964,-55.082446"},{"Borough":"Manhattan","Neighborhood":"East Harlem","Zip":10029,"naics":"713940","est":2.0,"Median Income":34015,"White Pop":26938.0,"Afr Am Pop":24772.0,"Asian Pop":7717.0,"Native Am Pacific Pop":188.0,"Other Pop":188.0,"Multi Race Pop":2652.0,"Lat":50.532071,"Lng":-57.328439,"Location":"50.532071,-57.328439"},{"Borough":"Manhattan","Neighborhood":"East Harlem","Zip":10035,"naics":"713940","est":2.0,"Median Income":27932,"White Pop":7505.0,"Afr Am Pop":14127.0,"Asian Pop":1830.0,"Native Am Pacific Pop":37.0,"Other Pop":37.0,"Multi Race Pop":1489.0,"Lat":71.162216,"Lng":-70.491572,"Location":"71.162216,-70.491572"},{"Borough":"Brooklyn","Neighborhood":"East New York and New Lots","Zip":11207,"naics":"713940","est":1.0,"Median Income":35809,"White Pop":12852.0,"Afr Am Pop":60551.0,"Asian Pop":1509.0,"Native Am Pacific Pop":117.0,"Other Pop":117.0,"Multi Race Pop":2288.0,"Lat":69.318668,"Lng":-47.53831,"Location":"69.318668,-47.53831"},{"Borough":"Brooklyn","Neighborhood":"Flatbush","Zip":11203,"naics":"713940","est":1.0,"Median Income":48140,"White Pop":3208.0,"Afr Am Pop":67853.0,"Asian Pop":1309.0,"Native Am Pacific Pop":11.0,"Other Pop":11.0,"Multi Race Pop":1222.0,"Lat":50.389863,"Lng":-50.443206,"Location":"50.389863,-50.443206"},{"Borough":"Brooklyn","Neighborhood":"Flatbush","Zip":11210,"naics":"713940","est":3.0,"Median Income":62202,"White Pop":20785.0,"Afr Am Pop":40809.0,"Asian Pop":3031.0,"Native Am Pacific Pop":0.0,"Other Pop":0.0,"Multi Race Pop":1273.0,"Lat":77.29745,"Lng":-18.369597,"Location":"77.29745,-18.369597"},{"Borough":"Brooklyn","Neighborhood":"Flatbush","Zip":11225,"naics":"713940","est":1.0,"Median Income":51926,"White Pop":15148.0,"Afr Am Pop":39470.0,"Asian Pop":1590.0,"Native Am Pacific Pop":65.0,"Other Pop":65.0,"Multi Race Pop":1232.0,"Lat":60.716566,"Lng":-23.533669,"Location":"60.716566,-23.533669"},{"Borough":"Brooklyn","Neighborhood":"Flatbush","Zip":11226,"naics":"713940","est":5.0,"Median Income":48495,"White Pop":14638.0,"Afr Am Pop":70292.0,"Asian Pop":3458.0,"Native Am Pacific Pop":0.0,"Other Pop":0.0,"Multi Race Pop":2795.0,"Lat":51.532627,"Lng":-53.903294,"Location":"51.532627,-53.903294"},{"Borough":"Manhattan","Neighborhood":"Gramercy Park and Murray Hill","Zip":10010,"naics":"713940","est":32.0,"Median Income":115084,"White Pop":24676.0,"Afr Am Pop":1926.0,"Asian Pop":4903.0,"Native Am Pacific Pop":0.0,"Other Pop":0.0,"Multi Race Pop":1132.0,"Lat":45.322739,"Lng":-27.57302,"Location":"45.322739,-27.57302"},{"Borough":"Manhattan","Neighborhood":"Gramercy Park and Murray Hill","Zip":10016,"naics":"713940","est":23.0,"Median Income":109250,"White Pop":36391.0,"Afr Am Pop":1780.0,"Asian Pop":10475.0,"Native Am Pacific Pop":20.0,"Other Pop":20.0,"Multi Race Pop":2065.0,"Lat":92.311408,"Lng":-64.810693,"Location":"92.311408,-64.810693"},{"Borough":"Manhattan","Neighborhood":"Gramercy Park and Murray Hill","Zip":10017,"naics":"713940","est":16.0,"Median Income":118469,"White Pop":12477.0,"Afr Am Pop":353.0,"Asian Pop":3241.0,"Native Am Pacific Pop":5.0,"Other Pop":5.0,"Multi Race Pop":237.0,"Lat":61.378849,"Lng":-63.086089,"Location":"61.378849,-63.086089"},{"Borough":"Manhattan","Neighborhood":"Gramercy Park and Murray Hill","Zip":10022,"naics":"713940","est":34.0,"Median Income":133208,"White Pop":26014.0,"Afr Am Pop":459.0,"Asian Pop":3431.0,"Native Am Pacific Pop":0.0,"Other Pop":0.0,"Multi Race Pop":600.0,"Lat":55.655517,"Lng":-49.330519,"Location":"55.655517,-49.330519"},{"Borough":"Brooklyn","Neighborhood":"Greenpoint","Zip":11211,"naics":"713940","est":8.0,"Median Income":66113,"White Pop":76636.0,"Afr Am Pop":6581.0,"Asian Pop":5924.0,"Native Am Pacific Pop":19.0,"Other Pop":19.0,"Multi Race Pop":2646.0,"Lat":62.485002,"Lng":-24.678437,"Location":"62.485002,-24.678437"},{"Borough":"Brooklyn","Neighborhood":"Greenpoint","Zip":11222,"naics":"713940","est":6.0,"Median Income":78287,"White Pop":30102.0,"Afr Am Pop":1449.0,"Asian Pop":2174.0,"Native Am Pacific Pop":9.0,"Other Pop":9.0,"Multi Race Pop":1455.0,"Lat":80.261878,"Lng":-46.445677,"Location":"80.261878,-46.445677"},{"Borough":"Manhattan","Neighborhood":"Greenwich Village and Soho","Zip":10012,"naics":"713940","est":22.0,"Median Income":104561,"White Pop":18138.0,"Afr Am Pop":761.0,"Asian Pop":4188.0,"Native Am Pacific Pop":21.0,"Other Pop":21.0,"Multi Race Pop":1061.0,"Lat":82.551472,"Lng":-19.567081,"Location":"82.551472,-19.567081"},{"Borough":"Manhattan","Neighborhood":"Greenwich Village and Soho","Zip":10013,"naics":"713940","est":25.0,"Median Income":106056,"White Pop":15957.0,"Afr Am Pop":1325.0,"Asian Pop":10358.0,"Native Am Pacific Pop":0.0,"Other Pop":0.0,"Multi Race Pop":1374.0,"Lat":97.442931,"Lng":-52.805511,"Location":"97.442931,-52.805511"},{"Borough":"Manhattan","Neighborhood":"Greenwich Village and Soho","Zip":10014,"naics":"713940","est":13.0,"Median Income":127973,"White Pop":28289.0,"Afr Am Pop":434.0,"Asian Pop":1789.0,"Native Am Pacific Pop":0.0,"Other Pop":0.0,"Multi Race Pop":780.0,"Lat":68.808964,"Lng":-49.369479,"Location":"68.808964,-49.369479"},{"Borough":"Bronx","Neighborhood":"High Bridge and Morrisania","Zip":10451,"naics":"713940","est":3.0,"Median Income":26979,"White Pop":5705.0,"Afr Am Pop":19097.0,"Asian Pop":907.0,"Native Am Pacific Pop":53.0,"Other Pop":53.0,"Multi Race Pop":1849.0,"Lat":40.820434,"Lng":-73.925309,"Location":"40.820434,-73.925309"},{"Borough":"Bronx","Neighborhood":"High Bridge and Morrisania","Zip":10452,"naics":"713940","est":1.0,"Median Income":27206,"White Pop":9144.0,"Afr Am Pop":24530.0,"Asian Pop":1085.0,"Native Am Pacific Pop":35.0,"Other Pop":35.0,"Multi Race Pop":2997.0,"Lat":40.837394,"Lng":-73.923588,"Location":"40.837394,-73.923588"},{"Borough":"Bronx","Neighborhood":"High Bridge and Morrisania","Zip":10456,"naics":"713940","est":2.0,"Median Income":26724,"White Pop":8974.0,"Afr Am Pop":39818.0,"Asian Pop":1180.0,"Native Am Pacific Pop":106.0,"Other Pop":106.0,"Multi Race Pop":2777.0,"Lat":40.829891,"Lng":-73.908118,"Location":"40.829891,-73.908118"},{"Borough":"Bronx","Neighborhood":"Hunts Point and Mott Haven","Zip":10454,"naics":"713940","est":1.0,"Median Income":21542,"White Pop":4899.0,"Afr Am Pop":11047.0,"Asian Pop":176.0,"Native Am Pacific Pop":14.0,"Other Pop":14.0,"Multi Race Pop":1269.0,"Lat":40.80548,"Lng":-73.91671,"Location":"40.80548,-73.91671"},{"Borough":"Bronx","Neighborhood":"Hunts Point and Mott Haven","Zip":10455,"naics":"713940","est":3.0,"Median Income":25489,"White Pop":4878.0,"Afr Am Pop":12488.0,"Asian Pop":408.0,"Native Am Pacific Pop":68.0,"Other Pop":68.0,"Multi Race Pop":1089.0,"Lat":40.814707,"Lng":-73.908692,"Location":"40.814707,-73.908692"},{"Borough":"Bronx","Neighborhood":"Hunts Point and Mott Haven","Zip":10459,"naics":"713940","est":1.0,"Median Income":25762,"White Pop":5829.0,"Afr Am Pop":16754.0,"Asian Pop":353.0,"Native Am Pacific Pop":0.0,"Other Pop":0.0,"Multi Race Pop":1109.0,"Lat":40.825878,"Lng":-73.893221,"Location":"40.825878,-73.893221"},{"Borough":"Manhattan","Neighborhood":"Inwood and Washington Heights","Zip":10031,"naics":"713940","est":1.0,"Median Income":44040,"White Pop":19676.0,"Afr Am Pop":18827.0,"Asian Pop":2456.0,"Native Am Pacific Pop":8.0,"Other Pop":8.0,"Multi Race Pop":10462.0,"Lat":72.337983,"Lng":-39.572478,"Location":"72.337983,-39.572478"},{"Borough":"Manhattan","Neighborhood":"Inwood and Washington Heights","Zip":10032,"naics":"713940","est":2.0,"Median Income":41890,"White Pop":19503.0,"Afr Am Pop":12804.0,"Asian Pop":2772.0,"Native Am Pacific Pop":88.0,"Other Pop":88.0,"Multi Race Pop":6570.0,"Lat":62.038208,"Lng":-63.629828,"Location":"62.038208,-63.629828"},{"Borough":"Manhattan","Neighborhood":"Inwood and Washington Heights","Zip":10033,"naics":"713940","est":4.0,"Median Income":53044,"White Pop":25298.0,"Afr Am Pop":6049.0,"Asian Pop":1136.0,"Native Am Pacific Pop":58.0,"Other Pop":58.0,"Multi Race Pop":5025.0,"Lat":43.715249,"Lng":-53.880379,"Location":"43.715249,-53.880379"},{"Borough":"Manhattan","Neighborhood":"Inwood and Washington Heights","Zip":10034,"naics":"713940","est":2.0,"Median Income":50909,"White Pop":16299.0,"Afr Am Pop":4714.0,"Asian Pop":995.0,"Native Am Pacific Pop":99.0,"Other Pop":99.0,"Multi Race Pop":2430.0,"Lat":86.703698,"Lng":-56.735428,"Location":"86.703698,-56.735428"},{"Borough":"Manhattan","Neighborhood":"Inwood and Washington Heights","Zip":10040,"naics":"713940","est":1.0,"Median Income":47189,"White Pop":16319.0,"Afr Am Pop":4590.0,"Asian Pop":1201.0,"Native Am Pacific Pop":0.0,"Other Pop":0.0,"Multi Race Pop":2753.0,"Lat":94.71634,"Lng":-59.606521,"Location":"94.71634,-59.606521"},{"Borough":"Queens","Neighborhood":"Jamaica","Zip":11432,"naics":"713940","est":3.0,"Median Income":52975,"White Pop":14385.0,"Afr Am Pop":10167.0,"Asian Pop":26636.0,"Native Am Pacific Pop":98.0,"Other Pop":98.0,"Multi Race Pop":2890.0,"Lat":79.676485,"Lng":-52.593516,"Location":"79.676485,-52.593516"},{"Borough":"Queens","Neighborhood":"Jamaica","Zip":11433,"naics":"713940","est":1.0,"Median Income":48795,"White Pop":1144.0,"Afr Am Pop":24343.0,"Asian Pop":2599.0,"Native Am Pacific Pop":9.0,"Other Pop":9.0,"Multi Race Pop":1089.0,"Lat":78.513382,"Lng":-58.889747,"Location":"78.513382,-58.889747"},{"Borough":"Queens","Neighborhood":"Jamaica","Zip":11434,"naics":"713940","est":1.0,"Median Income":60702,"White Pop":1891.0,"Afr Am Pop":58526.0,"Asian Pop":1390.0,"Native Am Pacific Pop":0.0,"Other Pop":0.0,"Multi Race Pop":1262.0,"Lat":91.670039,"Lng":-43.982531,"Location":"91.670039,-43.982531"},{"Borough":"Bronx","Neighborhood":"Kingsbridge and Riverdale","Zip":10463,"naics":"713940","est":10.0,"Median Income":58881,"White Pop":31955.0,"Afr Am Pop":11285.0,"Asian Pop":2442.0,"Native Am Pacific Pop":110.0,"Other Pop":110.0,"Multi Race Pop":4012.0,"Lat":40.880653,"Lng":-73.906397,"Location":"40.880653,-73.906397"},{"Borough":"Bronx","Neighborhood":"Kingsbridge and Riverdale","Zip":10471,"naics":"713940","est":1.0,"Median Income":80932,"White Pop":15240.0,"Afr Am Pop":2313.0,"Asian Pop":1520.0,"Native Am Pacific Pop":0.0,"Other Pop":0.0,"Multi Race Pop":764.0,"Lat":40.89876,"Lng":-73.902961,"Location":"40.89876,-73.902961"},{"Borough":"Manhattan","Neighborhood":"Lower East Side","Zip":10002,"naics":"713940","est":7.0,"Median Income":35449,"White Pop":24502.0,"Afr Am Pop":5817.0,"Asian Pop":33675.0,"Native Am Pacific Pop":5.0,"Other Pop":5.0,"Multi Race Pop":2697.0,"Lat":83.114632,"Lng":-65.391677,"Location":"83.114632,-65.391677"},{"Borough":"Manhattan","Neighborhood":"Lower East Side","Zip":10003,"naics":"713940","est":22.0,"Median Income":104441,"White Pop":42881.0,"Afr Am Pop":2245.0,"Asian Pop":7246.0,"Native Am Pacific Pop":53.0,"Other Pop":53.0,"Multi Race Pop":1265.0,"Lat":53.336929,"Lng":-67.113412,"Location":"53.336929,-67.113412"},{"Borough":"Manhattan","Neighborhood":"Lower East Side","Zip":10009,"naics":"713940","est":5.0,"Median Income":60521,"White Pop":36482.0,"Afr Am Pop":5286.0,"Asian Pop":8046.0,"Native Am Pacific Pop":36.0,"Other Pop":36.0,"Multi Race Pop":1988.0,"Lat":82.552332,"Lng":-52.779153,"Location":"82.552332,-52.779153"},{"Borough":"Manhattan","Neighborhood":"Lower Manhattan","Zip":10004,"naics":"713940","est":5.0,"Median Income":140450,"White Pop":2060.0,"Afr Am Pop":34.0,"Asian Pop":790.0,"Native Am Pacific Pop":10.0,"Other Pop":10.0,"Multi Race Pop":65.0,"Lat":89.963255,"Lng":-59.121222,"Location":"89.963255,-59.121222"},{"Borough":"Manhattan","Neighborhood":"Lower Manhattan","Zip":10005,"naics":"713940","est":9.0,"Median Income":154213,"White Pop":6494.0,"Afr Am Pop":270.0,"Asian Pop":1404.0,"Native Am Pacific Pop":0.0,"Other Pop":0.0,"Multi Race Pop":320.0,"Lat":65.916158,"Lng":-37.912618,"Location":"65.916158,-37.912618"},{"Borough":"Manhattan","Neighborhood":"Lower Manhattan","Zip":10006,"naics":"713940","est":1.0,"Median Income":145893,"White Pop":2490.0,"Afr Am Pop":60.0,"Asian Pop":662.0,"Native Am Pacific Pop":0.0,"Other Pop":0.0,"Multi Race Pop":254.0,"Lat":77.951823,"Lng":-19.581977,"Location":"77.951823,-19.581977"},{"Borough":"Manhattan","Neighborhood":"Lower Manhattan","Zip":10007,"naics":"713940","est":9.0,"Median Income":242644,"White Pop":5110.0,"Afr Am Pop":385.0,"Asian Pop":955.0,"Native Am Pacific Pop":0.0,"Other Pop":0.0,"Multi Race Pop":457.0,"Lat":44.724571,"Lng":-69.997107,"Location":"44.724571,-69.997107"},{"Borough":"Manhattan","Neighborhood":"Lower Manhattan","Zip":10038,"naics":"713940","est":8.0,"Median Income":85032,"White Pop":11278.0,"Afr Am Pop":2176.0,"Asian Pop":7622.0,"Native Am Pacific Pop":0.0,"Other Pop":0.0,"Multi Race Pop":573.0,"Lat":88.837738,"Lng":-21.863495,"Location":"88.837738,-21.863495"},{"Borough":"Manhattan","Neighborhood":"Lower Manhattan","Zip":10280,"naics":"713940","est":3.0,"Median Income":161419,"White Pop":7346.0,"Afr Am Pop":172.0,"Asian Pop":1835.0,"Native Am Pacific Pop":0.0,"Other Pop":0.0,"Multi Race Pop":306.0,"Lat":45.292713,"Lng":-29.898653,"Location":"45.292713,-29.898653"},{"Borough":"Staten Island","Neighborhood":"Mid-Island","Zip":10314,"naics":"713940","est":10.0,"Median Income":80956,"White Pop":67272.0,"Afr Am Pop":4220.0,"Asian Pop":14068.0,"Native Am Pacific Pop":88.0,"Other Pop":88.0,"Multi Race Pop":1863.0,"Lat":89.300685,"Lng":-26.037496,"Location":"89.300685,-26.037496"},{"Borough":"Queens","Neighborhood":"North Queens","Zip":11354,"naics":"713940","est":6.0,"Median Income":44512,"White Pop":11934.0,"Afr Am Pop":2097.0,"Asian Pop":35922.0,"Native Am Pacific Pop":6.0,"Other Pop":6.0,"Multi Race Pop":1548.0,"Lat":49.362605,"Lng":-64.660006,"Location":"49.362605,-64.660006"},{"Borough":"Queens","Neighborhood":"North Queens","Zip":11355,"naics":"713940","est":4.0,"Median Income":38370,"White Pop":10650.0,"Afr Am Pop":2761.0,"Asian Pop":60276.0,"Native Am Pacific Pop":83.0,"Other Pop":83.0,"Multi Race Pop":1960.0,"Lat":65.961596,"Lng":-16.525247,"Location":"65.961596,-16.525247"},{"Borough":"Queens","Neighborhood":"North Queens","Zip":11356,"naics":"713940","est":1.0,"Median Income":59712,"White Pop":8370.0,"Afr Am Pop":569.0,"Asian Pop":7543.0,"Native Am Pacific Pop":55.0,"Other Pop":55.0,"Multi Race Pop":877.0,"Lat":84.902661,"Lng":-23.994325,"Location":"84.902661,-23.994325"},{"Borough":"Queens","Neighborhood":"North Queens","Zip":11357,"naics":"713940","est":5.0,"Median Income":81053,"White Pop":28912.0,"Afr Am Pop":205.0,"Asian Pop":9362.0,"Native Am Pacific Pop":15.0,"Other Pop":15.0,"Multi Race Pop":1193.0,"Lat":54.53613,"Lng":-26.8276,"Location":"54.53613,-26.8276"},{"Borough":"Queens","Neighborhood":"North Queens","Zip":11358,"naics":"713940","est":6.0,"Median Income":65932,"White Pop":16059.0,"Afr Am Pop":459.0,"Asian Pop":16591.0,"Native Am Pacific Pop":0.0,"Other Pop":0.0,"Multi Race Pop":894.0,"Lat":47.635942,"Lng":-24.522019,"Location":"47.635942,-24.522019"},{"Borough":"Queens","Neighborhood":"North Queens","Zip":11360,"naics":"713940","est":3.0,"Median Income":84476,"White Pop":12738.0,"Afr Am Pop":180.0,"Asian Pop":5791.0,"Native Am Pacific Pop":0.0,"Other Pop":0.0,"Multi Race Pop":301.0,"Lat":76.303711,"Lng":-33.101489,"Location":"76.303711,-33.101489"},{"Borough":"Queens","Neighborhood":"Northeast Queens","Zip":11361,"naics":"713940","est":6.0,"Median Income":82020,"White Pop":14572.0,"Afr Am Pop":964.0,"Asian Pop":11334.0,"Native Am Pacific Pop":0.0,"Other Pop":0.0,"Multi Race Pop":633.0,"Lat":95.195161,"Lng":-37.676559,"Location":"95.195161,-37.676559"},{"Borough":"Queens","Neighborhood":"Northeast Queens","Zip":11362,"naics":"713940","est":1.0,"Median Income":80828,"White Pop":9075.0,"Afr Am Pop":186.0,"Asian Pop":8089.0,"Native Am Pacific Pop":0.0,"Other Pop":0.0,"Multi Race Pop":469.0,"Lat":87.739145,"Lng":-23.887754,"Location":"87.739145,-23.887754"},{"Borough":"Queens","Neighborhood":"Northeast Queens","Zip":11364,"naics":"713940","est":1.0,"Median Income":71030,"White Pop":14707.0,"Afr Am Pop":931.0,"Asian Pop":18079.0,"Native Am Pacific Pop":4.0,"Other Pop":4.0,"Multi Race Pop":694.0,"Lat":49.912644,"Lng":-53.134385,"Location":"49.912644,-53.134385"},{"Borough":"Brooklyn","Neighborhood":"Northwest Brooklyn","Zip":11201,"naics":"713940","est":26.0,"Median Income":116446,"White Pop":39710.0,"Afr Am Pop":8353.0,"Asian Pop":7233.0,"Native Am Pacific Pop":134.0,"Other Pop":134.0,"Multi Race Pop":3316.0,"Lat":46.423275,"Lng":-55.082446,"Location":"46.423275,-55.082446"},{"Borough":"Brooklyn","Neighborhood":"Northwest Brooklyn","Zip":11205,"naics":"713940","est":4.0,"Median Income":51574,"White Pop":20970.0,"Afr Am Pop":14864.0,"Asian Pop":3499.0,"Native Am Pacific Pop":7.0,"Other Pop":7.0,"Multi Race Pop":1634.0,"Lat":49.861995,"Lng":-47.036967,"Location":"49.861995,-47.036967"},{"Borough":"Brooklyn","Neighborhood":"Northwest Brooklyn","Zip":11215,"naics":"713940","est":15.0,"Median Income":116893,"White Pop":53737.0,"Afr Am Pop":3081.0,"Asian Pop":5488.0,"Native Am Pacific Pop":0.0,"Other Pop":0.0,"Multi Race Pop":4444.0,"Lat":85.353409,"Lng":-25.285198,"Location":"85.353409,-25.285198"},{"Borough":"Brooklyn","Neighborhood":"Northwest Brooklyn","Zip":11217,"naics":"713940","est":8.0,"Median Income":99085,"White Pop":23229.0,"Afr Am Pop":7685.0,"Asian Pop":3010.0,"Native Am Pacific Pop":23.0,"Other Pop":23.0,"Multi Race Pop":1661.0,"Lat":52.714407,"Lng":-68.821398,"Location":"52.714407,-68.821398"},{"Borough":"Brooklyn","Neighborhood":"Northwest Brooklyn","Zip":11231,"naics":"713940","est":6.0,"Median Income":93575,"White Pop":25184.0,"Afr Am Pop":5023.0,"Asian Pop":1951.0,"Native Am Pacific Pop":0.0,"Other Pop":0.0,"Multi Race Pop":2067.0,"Lat":65.888082,"Lng":-51.659595,"Location":"65.888082,-51.659595"},{"Borough":"Queens","Neighborhood":"Northwest Queens","Zip":11101,"naics":"713940","est":14.0,"Median Income":57866,"White Pop":13414.0,"Afr Am Pop":4814.0,"Asian Pop":5970.0,"Native Am Pacific Pop":40.0,"Other Pop":40.0,"Multi Race Pop":1351.0,"Lat":79.135728,"Lng":-41.280464,"Location":"79.135728,-41.280464"},{"Borough":"Queens","Neighborhood":"Northwest Queens","Zip":11102,"naics":"713940","est":4.0,"Median Income":60436,"White Pop":19180.0,"Afr Am Pop":3555.0,"Asian Pop":5499.0,"Native Am Pacific Pop":47.0,"Other Pop":47.0,"Multi Race Pop":870.0,"Lat":67.128938,"Lng":-19.495459,"Location":"67.128938,-19.495459"},{"Borough":"Queens","Neighborhood":"Northwest Queens","Zip":11103,"naics":"713940","est":7.0,"Median Income":65229,"White Pop":26680.0,"Afr Am Pop":1021.0,"Asian Pop":5820.0,"Native Am Pacific Pop":46.0,"Other Pop":46.0,"Multi Race Pop":1334.0,"Lat":82.015527,"Lng":-34.379187,"Location":"82.015527,-34.379187"},{"Borough":"Queens","Neighborhood":"Northwest Queens","Zip":11104,"naics":"713940","est":3.0,"Median Income":63122,"White Pop":17715.0,"Afr Am Pop":384.0,"Asian Pop":5407.0,"Native Am Pacific Pop":0.0,"Other Pop":0.0,"Multi Race Pop":668.0,"Lat":91.164919,"Lng":-69.33649,"Location":"91.164919,-69.33649"},{"Borough":"Queens","Neighborhood":"Northwest Queens","Zip":11105,"naics":"713940","est":3.0,"Median Income":68050,"White Pop":27702.0,"Afr Am Pop":916.0,"Asian Pop":5100.0,"Native Am Pacific Pop":0.0,"Other Pop":0.0,"Multi Race Pop":979.0,"Lat":71.145718,"Lng":-49.842169,"Location":"71.145718,-49.842169"},{"Borough":"Queens","Neighborhood":"Northwest Queens","Zip":11106,"naics":"713940","est":1.0,"Median Income":60725,"White Pop":21585.0,"Afr Am Pop":2795.0,"Asian Pop":8557.0,"Native Am Pacific Pop":0.0,"Other Pop":0.0,"Multi Race Pop":1878.0,"Lat":55.659127,"Lng":-63.618367,"Location":"55.659127,-63.618367"},{"Borough":"Staten Island","Neighborhood":"Port Richmond","Zip":10302,"naics":"713940","est":3.0,"Median Income":60968,"White Pop":11856.0,"Afr Am Pop":3330.0,"Asian Pop":1255.0,"Native Am Pacific Pop":2.0,"Other Pop":2.0,"Multi Race Pop":768.0,"Lat":77.872986,"Lng":-40.90632,"Location":"77.872986,-40.90632"},{"Borough":"Staten Island","Neighborhood":"Port Richmond","Zip":10310,"naics":"713940","est":1.0,"Median Income":69838,"White Pop":14011.0,"Afr Am Pop":5256.0,"Asian Pop":1546.0,"Native Am Pacific Pop":0.0,"Other Pop":0.0,"Multi Race Pop":1056.0,"Lat":50.945916,"Lng":-52.343708,"Location":"50.945916,-52.343708"},{"Borough":"Queens","Neighborhood":"Rockaways","Zip":11691,"naics":"713940","est":2.0,"Median Income":42434,"White Pop":26523.0,"Afr Am Pop":30289.0,"Asian Pop":1907.0,"Native Am Pacific Pop":62.0,"Other Pop":62.0,"Multi Race Pop":1053.0,"Lat":69.822125,"Lng":-30.216647,"Location":"69.822125,-30.216647"},{"Borough":"Queens","Neighborhood":"Rockaways","Zip":11692,"naics":"713940","est":1.0,"Median Income":45816,"White Pop":4941.0,"Afr Am Pop":11997.0,"Asian Pop":1193.0,"Native Am Pacific Pop":0.0,"Other Pop":0.0,"Multi Race Pop":492.0,"Lat":44.604879,"Lng":-17.641943,"Location":"44.604879,-17.641943"},{"Borough":"Queens","Neighborhood":"Rockaways","Zip":11694,"naics":"713940","est":2.0,"Median Income":77547,"White Pop":17506.0,"Afr Am Pop":1463.0,"Asian Pop":616.0,"Native Am Pacific Pop":0.0,"Other Pop":0.0,"Multi Race Pop":236.0,"Lat":97.301068,"Lng":-44.050717,"Location":"97.301068,-44.050717"},{"Borough":"Staten Island","Neighborhood":"South Shore","Zip":10306,"naics":"713940","est":7.0,"Median Income":80025,"White Pop":46587.0,"Afr Am Pop":1597.0,"Asian Pop":3499.0,"Native Am Pacific Pop":0.0,"Other Pop":0.0,"Multi Race Pop":930.0,"Lat":91.565015,"Lng":-61.520772,"Location":"91.565015,-61.520772"},{"Borough":"Staten Island","Neighborhood":"South Shore","Zip":10307,"naics":"713940","est":1.0,"Median Income":81356,"White Pop":14736.0,"Afr Am Pop":53.0,"Asian Pop":465.0,"Native Am Pacific Pop":0.0,"Other Pop":0.0,"Multi Race Pop":52.0,"Lat":50.822443,"Lng":-26.682068,"Location":"50.822443,-26.682068"},{"Borough":"Staten Island","Neighborhood":"South Shore","Zip":10308,"naics":"713940","est":2.0,"Median Income":91953,"White Pop":27805.0,"Afr Am Pop":304.0,"Asian Pop":1417.0,"Native Am Pacific Pop":14.0,"Other Pop":14.0,"Multi Race Pop":214.0,"Lat":85.815558,"Lng":-50.656342,"Location":"85.815558,-50.656342"},{"Borough":"Staten Island","Neighborhood":"South Shore","Zip":10309,"naics":"713940","est":13.0,"Median Income":100343,"White Pop":31146.0,"Afr Am Pop":367.0,"Asian Pop":1277.0,"Native Am Pacific Pop":0.0,"Other Pop":0.0,"Multi Race Pop":226.0,"Lat":85.794985,"Lng":-40.988255,"Location":"85.794985,-40.988255"},{"Borough":"Staten Island","Neighborhood":"South Shore","Zip":10312,"naics":"713940","est":3.0,"Median Income":90797,"White Pop":55809.0,"Afr Am Pop":721.0,"Asian Pop":3419.0,"Native Am Pacific Pop":47.0,"Other Pop":47.0,"Multi Race Pop":677.0,"Lat":45.701863,"Lng":-18.03041,"Location":"45.701863,-18.03041"},{"Borough":"Bronx","Neighborhood":"Southeast Bronx","Zip":10461,"naics":"713940","est":5.0,"Median Income":55847,"White Pop":24520.0,"Afr Am Pop":4689.0,"Asian Pop":6005.0,"Native Am Pacific Pop":45.0,"Other Pop":45.0,"Multi Race Pop":1869.0,"Lat":40.84742,"Lng":-73.840506,"Location":"40.84742,-73.840506"},{"Borough":"Bronx","Neighborhood":"Southeast Bronx","Zip":10462,"naics":"713940","est":3.0,"Median Income":49962,"White Pop":18480.0,"Afr Am Pop":21810.0,"Asian Pop":10074.0,"Native Am Pacific Pop":20.0,"Other Pop":20.0,"Multi Race Pop":3951.0,"Lat":40.84324,"Lng":-73.860559,"Location":"40.84324,-73.860559"},{"Borough":"Bronx","Neighborhood":"Southeast Bronx","Zip":10465,"naics":"713940","est":5.0,"Median Income":74079,"White Pop":26954.0,"Afr Am Pop":5188.0,"Asian Pop":1513.0,"Native Am Pacific Pop":7.0,"Other Pop":7.0,"Multi Race Pop":1405.0,"Lat":40.822613,"Lng":-73.822174,"Location":"40.822613,-73.822174"},{"Borough":"Bronx","Neighborhood":"Southeast Bronx","Zip":10473,"naics":"713940","est":1.0,"Median Income":38924,"White Pop":23831.0,"Afr Am Pop":24898.0,"Asian Pop":1179.0,"Native Am Pacific Pop":0.0,"Other Pop":0.0,"Multi Race Pop":2081.0,"Lat":40.818717,"Lng":-73.858271,"Location":"40.818717,-73.858271"},{"Borough":"Queens","Neighborhood":"Southeast Queens","Zip":11004,"naics":"713940","est":1.0,"Median Income":93315,"White Pop":6521.0,"Afr Am Pop":1115.0,"Asian Pop":5863.0,"Native Am Pacific Pop":42.0,"Other Pop":42.0,"Multi Race Pop":690.0,"Lat":94.031255,"Lng":-50.793281,"Location":"94.031255,-50.793281"},{"Borough":"Queens","Neighborhood":"Southeast Queens","Zip":11411,"naics":"713940","est":1.0,"Median Income":87231,"White Pop":429.0,"Afr Am Pop":18617.0,"Asian Pop":65.0,"Native Am Pacific Pop":0.0,"Other Pop":0.0,"Multi Race Pop":364.0,"Lat":44.131788,"Lng":-17.013408,"Location":"44.131788,-17.013408"},{"Borough":"Queens","Neighborhood":"Southeast Queens","Zip":11413,"naics":"713940","est":1.0,"Median Income":83459,"White Pop":957.0,"Afr Am Pop":39347.0,"Asian Pop":579.0,"Native Am Pacific Pop":82.0,"Other Pop":82.0,"Multi Race Pop":678.0,"Lat":67.027581,"Lng":-49.688046,"Location":"67.027581,-49.688046"},{"Borough":"Queens","Neighborhood":"Southeast Queens","Zip":11422,"naics":"713940","est":1.0,"Median Income":86996,"White Pop":2177.0,"Afr Am Pop":28615.0,"Asian Pop":710.0,"Native Am Pacific Pop":0.0,"Other Pop":0.0,"Multi Race Pop":785.0,"Lat":69.880912,"Lng":-70.87144,"Location":"69.880912,-70.87144"},{"Borough":"Queens","Neighborhood":"Southeast Queens","Zip":11426,"naics":"713940","est":2.0,"Median Income":83376,"White Pop":8767.0,"Afr Am Pop":1031.0,"Asian Pop":8931.0,"Native Am Pacific Pop":0.0,"Other Pop":0.0,"Multi Race Pop":642.0,"Lat":48.184891,"Lng":-40.490928,"Location":"48.184891,-40.490928"},{"Borough":"Queens","Neighborhood":"Southeast Queens","Zip":11427,"naics":"713940","est":1.0,"Median Income":72874,"White Pop":6298.0,"Afr Am Pop":5247.0,"Asian Pop":8036.0,"Native Am Pacific Pop":0.0,"Other Pop":0.0,"Multi Race Pop":1487.0,"Lat":90.005309,"Lng":-18.168489,"Location":"90.005309,-18.168489"},{"Borough":"Brooklyn","Neighborhood":"Southern Brooklyn","Zip":11223,"naics":"713940","est":11.0,"Median Income":46310,"White Pop":48854.0,"Afr Am Pop":3684.0,"Asian Pop":19523.0,"Native Am Pacific Pop":138.0,"Other Pop":138.0,"Multi Race Pop":1932.0,"Lat":40.597155,"Lng":-73.973435,"Location":"40.597155,-73.973435"},{"Borough":"Brooklyn","Neighborhood":"Southern Brooklyn","Zip":11224,"naics":"713940","est":3.0,"Median Income":31630,"White Pop":26169.0,"Afr Am Pop":10657.0,"Asian Pop":2673.0,"Native Am Pacific Pop":24.0,"Other Pop":24.0,"Multi Race Pop":1150.0,"Lat":40.577385,"Lng":-73.988905,"Location":"40.577385,-73.988905"},{"Borough":"Brooklyn","Neighborhood":"Southern Brooklyn","Zip":11229,"naics":"713940","est":6.0,"Median Income":59287,"White Pop":56521.0,"Afr Am Pop":4860.0,"Asian Pop":19088.0,"Native Am Pacific Pop":76.0,"Other Pop":76.0,"Multi Race Pop":1578.0,"Lat":40.601277,"Lng":-73.944215,"Location":"40.601277,-73.944215"},{"Borough":"Brooklyn","Neighborhood":"Southern Brooklyn","Zip":11235,"naics":"713940","est":7.0,"Median Income":49653,"White Pop":61548.0,"Afr Am Pop":2046.0,"Asian Pop":11422.0,"Native Am Pacific Pop":0.0,"Other Pop":0.0,"Multi Race Pop":1793.0,"Lat":40.583977,"Lng":-73.949372,"Location":"40.583977,-73.949372"},{"Borough":"Brooklyn","Neighborhood":"Southwest Brooklyn","Zip":11209,"naics":"713940","est":7.0,"Median Income":69578,"White Pop":50779.0,"Afr Am Pop":1618.0,"Asian Pop":9055.0,"Native Am Pacific Pop":35.0,"Other Pop":35.0,"Multi Race Pop":2280.0,"Lat":40.622021,"Lng":-74.03016,"Location":"40.622021,-74.03016"},{"Borough":"Brooklyn","Neighborhood":"Southwest Brooklyn","Zip":11214,"naics":"713940","est":5.0,"Median Income":53151,"White Pop":48521.0,"Afr Am Pop":1404.0,"Asian Pop":35001.0,"Native Am Pacific Pop":12.0,"Other Pop":12.0,"Multi Race Pop":1724.0,"Lat":40.59916,"Lng":-73.99635,"Location":"40.59916,-73.99635"},{"Borough":"Brooklyn","Neighborhood":"Southwest Brooklyn","Zip":11228,"naics":"713940","est":2.0,"Median Income":63697,"White Pop":26445.0,"Afr Am Pop":405.0,"Asian Pop":14861.0,"Native Am Pacific Pop":34.0,"Other Pop":34.0,"Multi Race Pop":778.0,"Lat":40.616693,"Lng":-74.012968,"Location":"40.616693,-74.012968"},{"Borough":"Queens","Neighborhood":"Southwest Queens","Zip":11414,"naics":"713940","est":4.0,"Median Income":72632,"White Pop":22755.0,"Afr Am Pop":813.0,"Asian Pop":1177.0,"Native Am Pacific Pop":0.0,"Other Pop":0.0,"Multi Race Pop":1399.0,"Lat":85.348307,"Lng":-71.552691,"Location":"85.348307,-71.552691"},{"Borough":"Queens","Neighborhood":"Southwest Queens","Zip":11415,"naics":"713940","est":4.0,"Median Income":65981,"White Pop":11915.0,"Afr Am Pop":1107.0,"Asian Pop":3896.0,"Native Am Pacific Pop":0.0,"Other Pop":0.0,"Multi Race Pop":771.0,"Lat":89.40932,"Lng":-26.272981,"Location":"89.40932,-26.272981"},{"Borough":"Queens","Neighborhood":"Southwest Queens","Zip":11416,"naics":"713940","est":2.0,"Median Income":61285,"White Pop":7720.0,"Afr Am Pop":1606.0,"Asian Pop":9234.0,"Native Am Pacific Pop":26.0,"Other Pop":26.0,"Multi Race Pop":1759.0,"Lat":66.467744,"Lng":-72.703763,"Location":"66.467744,-72.703763"},{"Borough":"Queens","Neighborhood":"Southwest Queens","Zip":11417,"naics":"713940","est":1.0,"Median Income":69989,"White Pop":12108.0,"Afr Am Pop":2250.0,"Asian Pop":9794.0,"Native Am Pacific Pop":7.0,"Other Pop":7.0,"Multi Race Pop":1743.0,"Lat":69.897298,"Lng":-72.698606,"Location":"69.897298,-72.698606"},{"Borough":"Queens","Neighborhood":"Southwest Queens","Zip":11418,"naics":"713940","est":2.0,"Median Income":67003,"White Pop":15604.0,"Afr Am Pop":2959.0,"Asian Pop":10254.0,"Native Am Pacific Pop":0.0,"Other Pop":0.0,"Multi Race Pop":2059.0,"Lat":60.180795,"Lng":-33.728877,"Location":"60.180795,-33.728877"},{"Borough":"Queens","Neighborhood":"Southwest Queens","Zip":11420,"naics":"713940","est":2.0,"Median Income":66220,"White Pop":7837.0,"Afr Am Pop":11937.0,"Asian Pop":14367.0,"Native Am Pacific Pop":54.0,"Other Pop":54.0,"Multi Race Pop":3370.0,"Lat":57.862319,"Lng":-60.639561,"Location":"57.862319,-60.639561"},{"Borough":"Queens","Neighborhood":"Southwest Queens","Zip":11421,"naics":"713940","est":1.0,"Median Income":69053,"White Pop":21617.0,"Afr Am Pop":1843.0,"Asian Pop":8921.0,"Native Am Pacific Pop":0.0,"Other Pop":0.0,"Multi Race Pop":2213.0,"Lat":87.676581,"Lng":-49.22166,"Location":"87.676581,-49.22166"},{"Borough":"Staten Island","Neighborhood":"Stapleton and St. George","Zip":10301,"naics":"713940","est":2.0,"Median Income":55818,"White Pop":21731.0,"Afr Am Pop":10554.0,"Asian Pop":2347.0,"Native Am Pacific Pop":0.0,"Other Pop":0.0,"Multi Race Pop":2196.0,"Lat":79.015637,"Lng":-55.75968,"Location":"79.015637,-55.75968"},{"Borough":"Staten Island","Neighborhood":"Stapleton and St. George","Zip":10304,"naics":"713940","est":1.0,"Median Income":54567,"White Pop":22095.0,"Afr Am Pop":11164.0,"Asian Pop":4044.0,"Native Am Pacific Pop":14.0,"Other Pop":14.0,"Multi Race Pop":1118.0,"Lat":64.100511,"Lng":-24.24528,"Location":"64.100511,-24.24528"},{"Borough":"Brooklyn","Neighborhood":"Sunset Park","Zip":11220,"naics":"713940","est":2.0,"Median Income":42559,"White Pop":28174.0,"Afr Am Pop":2369.0,"Asian Pop":41798.0,"Native Am Pacific Pop":0.0,"Other Pop":0.0,"Multi Race Pop":2376.0,"Lat":72.15378,"Lng":-28.17978,"Location":"72.15378,-28.17978"},{"Borough":"Manhattan","Neighborhood":"Upper East Side","Zip":10021,"naics":"713940","est":18.0,"Median Income":123842,"White Pop":36394.0,"Afr Am Pop":550.0,"Asian Pop":4756.0,"Native Am Pacific Pop":112.0,"Other Pop":112.0,"Multi Race Pop":1232.0,"Lat":79.730341,"Lng":-33.851493,"Location":"79.730341,-33.851493"},{"Borough":"Manhattan","Neighborhood":"Upper East Side","Zip":10028,"naics":"713940","est":14.0,"Median Income":119203,"White Pop":43504.0,"Afr Am Pop":688.0,"Asian Pop":4516.0,"Native Am Pacific Pop":0.0,"Other Pop":0.0,"Multi Race Pop":1080.0,"Lat":70.570236,"Lng":-44.732534,"Location":"70.570236,-44.732534"},{"Borough":"Manhattan","Neighborhood":"Upper East Side","Zip":10044,"naics":"713940","est":2.0,"Median Income":92623,"White Pop":5805.0,"Afr Am Pop":1589.0,"Asian Pop":3650.0,"Native Am Pacific Pop":0.0,"Other Pop":0.0,"Multi Race Pop":495.0,"Lat":75.712305,"Lng":-18.37304,"Location":"75.712305,-18.37304"},{"Borough":"Manhattan","Neighborhood":"Upper East Side","Zip":10065,"naics":"713940","est":10.0,"Median Income":124322,"White Pop":26200.0,"Afr Am Pop":694.0,"Asian Pop":2200.0,"Native Am Pacific Pop":0.0,"Other Pop":0.0,"Multi Race Pop":328.0,"Lat":60.818151,"Lng":-53.336641,"Location":"60.818151,-53.336641"},{"Borough":"Manhattan","Neighborhood":"Upper East Side","Zip":10075,"naics":"713940","est":6.0,"Median Income":129594,"White Pop":19979.0,"Afr Am Pop":292.0,"Asian Pop":960.0,"Native Am Pacific Pop":0.0,"Other Pop":0.0,"Multi Race Pop":580.0,"Lat":95.777285,"Lng":-67.08075,"Location":"95.777285,-67.08075"},{"Borough":"Manhattan","Neighborhood":"Upper East Side","Zip":10128,"naics":"713940","est":18.0,"Median Income":111937,"White Pop":49800.0,"Afr Am Pop":2747.0,"Asian Pop":6176.0,"Native Am Pacific Pop":0.0,"Other Pop":0.0,"Multi Race Pop":2498.0,"Lat":44.219164,"Lng":-17.227124,"Location":"44.219164,-17.227124"},{"Borough":"Manhattan","Neighborhood":"Upper West Side","Zip":10023,"naics":"713940","est":23.0,"Median Income":123951,"White Pop":49091.0,"Afr Am Pop":2266.0,"Asian Pop":6762.0,"Native Am Pacific Pop":18.0,"Other Pop":18.0,"Multi Race Pop":1435.0,"Lat":56.245776,"Lng":-65.961192,"Location":"56.245776,-65.961192"},{"Borough":"Manhattan","Neighborhood":"Upper West Side","Zip":10024,"naics":"713940","est":17.0,"Median Income":126107,"White Pop":48514.0,"Afr Am Pop":2724.0,"Asian Pop":4050.0,"Native Am Pacific Pop":0.0,"Other Pop":0.0,"Multi Race Pop":1574.0,"Lat":67.154493,"Lng":-54.494017,"Location":"67.154493,-54.494017"},{"Borough":"Manhattan","Neighborhood":"Upper West Side","Zip":10025,"naics":"713940","est":11.0,"Median Income":82352,"White Pop":60801.0,"Afr Am Pop":11824.0,"Asian Pop":9232.0,"Native Am Pacific Pop":23.0,"Other Pop":23.0,"Multi Race Pop":3700.0,"Lat":40.80,"Lng":-73.97,"Location":"85.489313,-46.464583"},{"Borough":"Queens","Neighborhood":"West Central Queens","Zip":11374,"naics":"713940","est":5.0,"Median Income":56863,"White Pop":23949.0,"Afr Am Pop":1724.0,"Asian Pop":13137.0,"Native Am Pacific Pop":0.0,"Other Pop":0.0,"Multi Race Pop":1794.0,"Lat":43.018303,"Lng":-32.035788,"Location":"43.018303,-32.035788"},{"Borough":"Queens","Neighborhood":"West Central Queens","Zip":11375,"naics":"713940","est":12.0,"Median Income":76467,"White Pop":45164.0,"Afr Am Pop":1896.0,"Asian Pop":20712.0,"Native Am Pacific Pop":68.0,"Other Pop":68.0,"Multi Race Pop":3000.0,"Lat":90.568298,"Lng":-34.312148,"Location":"90.568298,-34.312148"},{"Borough":"Queens","Neighborhood":"West Central Queens","Zip":11385,"naics":"713940","est":7.0,"Median Income":64481,"White Pop":87369.0,"Afr Am Pop":2142.0,"Asian Pop":7578.0,"Native Am Pacific Pop":40.0,"Other Pop":40.0,"Multi Race Pop":2030.0,"Lat":93.412747,"Lng":-53.262731,"Location":"93.412747,-53.262731"},{"Borough":"Queens","Neighborhood":"West Queens","Zip":11368,"naics":"713940","est":4.0,"Median Income":47862,"White Pop":45355.0,"Afr Am Pop":13897.0,"Asian Pop":14013.0,"Native Am Pacific Pop":12.0,"Other Pop":12.0,"Multi Race Pop":2856.0,"Lat":98.045511,"Lng":-42.913393,"Location":"98.045511,-42.913393"},{"Borough":"Queens","Neighborhood":"West Queens","Zip":11372,"naics":"713940","est":5.0,"Median Income":53963,"White Pop":37858.0,"Afr Am Pop":1706.0,"Asian Pop":13151.0,"Native Am Pacific Pop":176.0,"Other Pop":176.0,"Multi Race Pop":2100.0,"Lat":89.453094,"Lng":-44.662634,"Location":"89.453094,-44.662634"},{"Borough":"Queens","Neighborhood":"West Queens","Zip":11373,"naics":"713940","est":1.0,"Median Income":49098,"White Pop":23348.0,"Afr Am Pop":2303.0,"Asian Pop":48874.0,"Native Am Pacific Pop":12.0,"Other Pop":12.0,"Multi Race Pop":2402.0,"Lat":87.148429,"Lng":-70.440578,"Location":"87.148429,-70.440578"},{"Borough":"Queens","Neighborhood":"West Queens","Zip":11377,"naics":"713940","est":5.0,"Median Income":54989,"White Pop":43531.0,"Afr Am Pop":2141.0,"Asian Pop":33982.0,"Native Am Pacific Pop":0.0,"Other Pop":0.0,"Multi Race Pop":2916.0,"Lat":43.036635,"Lng":-48.695113,"Location":"43.036635,-48.695113"},{"Borough":"Queens","Neighborhood":"West Queens","Zip":11378,"naics":"713940","est":2.0,"Median Income":68460,"White Pop":26531.0,"Afr Am Pop":511.0,"Asian Pop":3990.0,"Native Am Pacific Pop":32.0,"Other Pop":32.0,"Multi Race Pop":921.0,"Lat":92.86391,"Lng":-46.980823,"Location":"92.86391,-46.980823"}]